[
  {
    "COMMENT": "GENERATED VIA SPACETRACK.ORG API",
    "ORIGINATOR": "18 SPCS",
    "NORAD_CAT_ID": "48621",
    "OBJECT_NAME": "HAIYANG 2D",
    "OBJECT_TYPE": "PAYLOAD",
    "CLASSIFICATION_TYPE": "U",
    "INTLDES": "21043A",
    "EPOCH": "2022-12-13 08:40:06",
    "EPOCH_MICROSECONDS": "137760",
    "MEAN_MOTION": "13.83368127",
    "ECCENTRICITY": "0.0011207",
    "INCLINATION": "65.9985",
    "RA_OF_ASC_NODE": "256.0043",
    "ARG_OF_PERICENTER": "260.1274",
    "MEAN_ANOMALY": "99.8537",
    "EPHEMERIS_TYPE": "0",
    "ELEMENT_SET_NO": "999",
    "REV_AT_EPOCH": "7928",
    "BSTAR": "-0.00044598",
    "MEAN_MOTION_DOT": "-0.00000572",
    "MEAN_MOTION_DDOT": "0",
    "FILE": "3696866",
    "TLE_LINE0": "0 HAIYANG 2D",
    "TLE_LINE1": "1 48621U 21043A   22347.36118215 -.00000572  00000-0 -44598-3 0  9995",
    "TLE_LINE2": "2 48621  65.9985 256.0043 0011207 260.1274  99.8537 13.83368127 79287",
    "OBJECT_ID": "2021-043A",
    "OBJECT_NUMBER": "48621",
    "SEMIMAJOR_AXIS": "7330.102",
    "PERIOD": "104.094",
    "APOGEE": "960.182",
    "PERIGEE": "943.752",
    "DECAYED": "0"
  },
  {
    "COMMENT": "GENERATED VIA SPACETRACK.ORG API",
    "ORIGINATOR": "18 SPCS",
    "NORAD_CAT_ID": "48621",
    "OBJECT_NAME": "HAIYANG 2D",
    "OBJECT_TYPE": "PAYLOAD",
    "CLASSIFICATION_TYPE": "U",
    "INTLDES": "21043A",
    "EPOCH": "2022-12-13 19:04:43",
    "EPOCH_MICROSECONDS": "901184",
    "MEAN_MOTION": "13.83367805",
    "ECCENTRICITY": "0.0011226",
    "INCLINATION": "65.9984",
    "RA_OF_ASC_NODE": "254.9248",
    "ARG_OF_PERICENTER": "259.7362",
    "MEAN_ANOMALY": "100.2461",
    "EPHEMERIS_TYPE": "0",
    "ELEMENT_SET_NO": "999",
    "REV_AT_EPOCH": "7934",
    "BSTAR": "-0.00044235",
    "MEAN_MOTION_DOT": "-0.00000568",
    "MEAN_MOTION_DDOT": "0",
    "FILE": "3697728",
    "TLE_LINE0": "0 HAIYANG 2D",
    "TLE_LINE1": "1 48621U 21043A   22347.79495256 -.00000568  00000-0 -44235-3 0  9998",
    "TLE_LINE2": "2 48621  65.9984 254.9248 0011226 259.7362 100.2461 13.83367805 79345",
    "OBJECT_ID": "2021-043A",
    "OBJECT_NUMBER": "48621",
    "SEMIMAJOR_AXIS": "7330.103",
    "PERIOD": "104.094",
    "APOGEE": "960.197",
    "PERIGEE": "943.739",
    "DECAYED": "0"
  },
  {
    "COMMENT": "GENERATED VIA SPACETRACK.ORG API",
    "ORIGINATOR": "18 SPCS",
    "NORAD_CAT_ID": "48621",
    "OBJECT_NAME": "HAIYANG 2D",
    "OBJECT_TYPE": "PAYLOAD",
    "CLASSIFICATION_TYPE": "U",
    "INTLDES": "21043A",
    "EPOCH": "2022-12-14 05:29:21",
    "EPOCH_MICROSECONDS": "617952",
    "MEAN_MOTION": "13.8336782",
    "ECCENTRICITY": "0.0011177",
    "INCLINATION": "65.9989",
    "RA_OF_ASC_NODE": "253.8449",
    "ARG_OF_PERICENTER": "259.6581",
    "MEAN_ANOMALY": "100.3255",
    "EPHEMERIS_TYPE": "0",
    "ELEMENT_SET_NO": "999",
    "REV_AT_EPOCH": "7940",
    "BSTAR": "-0.0004193",
    "MEAN_MOTION_DOT": "-0.00000543",
    "MEAN_MOTION_DDOT": "0",
    "FILE": "3698388",
    "TLE_LINE0": "0 HAIYANG 2D",
    "TLE_LINE1": "1 48621U 21043A   22348.22872243 -.00000543  00000-0 -41930-3 0  9994",
    "TLE_LINE2": "2 48621  65.9989 253.8449 0011177 259.6581 100.3255 13.83367820 79404",
    "OBJECT_ID": "2021-043A",
    "OBJECT_NUMBER": "48621",
    "SEMIMAJOR_AXIS": "7330.103",
    "PERIOD": "104.094",
    "APOGEE": "960.161",
    "PERIGEE": "943.775",
    "DECAYED": "0"
  },
  {
    "COMMENT": "GENERATED VIA SPACETRACK.ORG API",
    "ORIGINATOR": "18 SPCS",
    "NORAD_CAT_ID": "48621",
    "OBJECT_NAME": "HAIYANG 2D",
    "OBJECT_TYPE": "PAYLOAD",
    "CLASSIFICATION_TYPE": "U",
    "INTLDES": "21043A",
    "EPOCH": "2022-12-14 10:41:40",
    "EPOCH_MICROSECONDS": "460352",
    "MEAN_MOTION": "13.83367677",
    "ECCENTRICITY": "0.0011187",
    "INCLINATION": "65.9988",
    "RA_OF_ASC_NODE": "253.3047",
    "ARG_OF_PERICENTER": "259.7269",
    "MEAN_ANOMALY": "100.2547",
    "EPHEMERIS_TYPE": "0",
    "ELEMENT_SET_NO": "999",
    "REV_AT_EPOCH": "7943",
    "BSTAR": "-0.00041665",
    "MEAN_MOTION_DOT": "-0.0000054",
    "MEAN_MOTION_DDOT": "0",
    "FILE": "3698810",
    "TLE_LINE0": "0 HAIYANG 2D",
    "TLE_LINE1": "1 48621U 21043A   22348.44560718 -.00000540  00000-0 -41665-3 0  9991",
    "TLE_LINE2": "2 48621  65.9988 253.3047 0011187 259.7269 100.2547 13.83367677 79433",
    "OBJECT_ID": "2021-043A",
    "OBJECT_NUMBER": "48621",
    "SEMIMAJOR_AXIS": "7330.103",
    "PERIOD": "104.094",
    "APOGEE": "960.168",
    "PERIGEE": "943.768",
    "DECAYED": "0"
  },
  {
    "COMMENT": "GENERATED VIA SPACETRACK.ORG API",
    "ORIGINATOR": "18 SPCS",
    "NORAD_CAT_ID": "48621",
    "OBJECT_NAME": "HAIYANG 2D",
    "OBJECT_TYPE": "PAYLOAD",
    "CLASSIFICATION_TYPE": "U",
    "INTLDES": "21043A",
    "EPOCH": "2022-12-14 22:50:24",
    "EPOCH_MICROSECONDS": "525600",
    "MEAN_MOTION": "13.83367943",
    "ECCENTRICITY": "0.00112",
    "INCLINATION": "65.9989",
    "RA_OF_ASC_NODE": "252.045",
    "ARG_OF_PERICENTER": "259.7315",
    "MEAN_ANOMALY": "100.2565",
    "EPHEMERIS_TYPE": "0",
    "ELEMENT_SET_NO": "999",
    "REV_AT_EPOCH": "7950",
    "BSTAR": "-0.0003716",
    "MEAN_MOTION_DOT": "-0.0000049",
    "MEAN_MOTION_DDOT": "0",
    "FILE": "3699647",
    "TLE_LINE0": "0 HAIYANG 2D",
    "TLE_LINE1": "1 48621U 21043A   22348.95167275 -.00000490  00000-0 -37160-3 0  9997",
    "TLE_LINE2": "2 48621  65.9989 252.0450 0011200 259.7315 100.2565 13.83367943 79500",
    "OBJECT_ID": "2021-043A",
    "OBJECT_NUMBER": "48621",
    "SEMIMAJOR_AXIS": "7330.102",
    "PERIOD": "104.094",
    "APOGEE": "960.177",
    "PERIGEE": "943.758",
    "DECAYED": "0"
  },
  {
    "COMMENT": "GENERATED VIA SPACETRACK.ORG API",
    "ORIGINATOR": "18 SPCS",
    "NORAD_CAT_ID": "48621",
    "OBJECT_NAME": "HAIYANG 2D",
    "OBJECT_TYPE": "PAYLOAD",
    "CLASSIFICATION_TYPE": "U",
    "INTLDES": "21043A",
    "EPOCH": "2022-12-14 22:50:24",
    "EPOCH_MICROSECONDS": "525600",
    "MEAN_MOTION": "13.83367943",
    "ECCENTRICITY": "0.00112",
    "INCLINATION": "65.9989",
    "RA_OF_ASC_NODE": "252.045",
    "ARG_OF_PERICENTER": "259.7315",
    "MEAN_ANOMALY": "100.2565",
    "EPHEMERIS_TYPE": "0",
    "ELEMENT_SET_NO": "999",
    "REV_AT_EPOCH": "7950",
    "BSTAR": "-0.0003716",
    "MEAN_MOTION_DOT": "-0.0000049",
    "MEAN_MOTION_DDOT": "0",
    "FILE": "3699726",
    "TLE_LINE0": "0 HAIYANG 2D",
    "TLE_LINE1": "1 48621U 21043A   22348.95167275 -.00000490  00000-0 -37160-3 0  9997",
    "TLE_LINE2": "2 48621  65.9989 252.0450 0011200 259.7315 100.2565 13.83367943 79500",
    "OBJECT_ID": "2021-043A",
    "OBJECT_NUMBER": "48621",
    "SEMIMAJOR_AXIS": "7330.102",
    "PERIOD": "104.094",
    "APOGEE": "960.177",
    "PERIGEE": "943.758",
    "DECAYED": "0"
  },
  {
    "COMMENT": "GENERATED VIA SPACETRACK.ORG API",
    "ORIGINATOR": "18 SPCS",
    "NORAD_CAT_ID": "48621",
    "OBJECT_NAME": "HAIYANG 2D",
    "OBJECT_TYPE": "PAYLOAD",
    "CLASSIFICATION_TYPE": "U",
    "INTLDES": "21043A",
    "EPOCH": "2022-12-15 05:46:49",
    "EPOCH_MICROSECONDS": "582560",
    "MEAN_MOTION": "13.83368425",
    "ECCENTRICITY": "0.0011206",
    "INCLINATION": "65.9989",
    "RA_OF_ASC_NODE": "251.325",
    "ARG_OF_PERICENTER": "259.4208",
    "MEAN_ANOMALY": "100.5674",
    "EPHEMERIS_TYPE": "0",
    "ELEMENT_SET_NO": "999",
    "REV_AT_EPOCH": "7954",
    "BSTAR": "-0.00032223",
    "MEAN_MOTION_DOT": "-0.00000436",
    "MEAN_MOTION_DDOT": "0",
    "FILE": "3700804",
    "TLE_LINE0": "0 HAIYANG 2D",
    "TLE_LINE1": "1 48621U 21043A   22349.24085165 -.00000436  00000-0 -32223-3 0  9992",
    "TLE_LINE2": "2 48621  65.9989 251.3250 0011206 259.4208 100.5674 13.83368425 79548",
    "OBJECT_ID": "2021-043A",
    "OBJECT_NUMBER": "48621",
    "SEMIMAJOR_AXIS": "7330.101",
    "PERIOD": "104.094",
    "APOGEE": "960.180",
    "PERIGEE": "943.751",
    "DECAYED": "0"
  },
  {
    "COMMENT": "GENERATED VIA SPACETRACK.ORG API",
    "ORIGINATOR": "18 SPCS",
    "NORAD_CAT_ID": "48621",
    "OBJECT_NAME": "HAIYANG 2D",
    "OBJECT_TYPE": "PAYLOAD",
    "CLASSIFICATION_TYPE": "U",
    "INTLDES": "21043A",
    "EPOCH": "2022-12-15 12:43:14",
    "EPOCH_MICROSECONDS": "629152",
    "MEAN_MOTION": "13.8336849",
    "ECCENTRICITY": "0.0011179",
    "INCLINATION": "65.9989",
    "RA_OF_ASC_NODE": "250.6052",
    "ARG_OF_PERICENTER": "259.1364",
    "MEAN_ANOMALY": "100.847",
    "EPHEMERIS_TYPE": "0",
    "ELEMENT_SET_NO": "999",
    "REV_AT_EPOCH": "7958",
    "BSTAR": "-0.00030195",
    "MEAN_MOTION_DOT": "-0.00000414",
    "MEAN_MOTION_DDOT": "0",
    "FILE": "3701872",
    "TLE_LINE0": "0 HAIYANG 2D",
    "TLE_LINE1": "1 48621U 21043A   22349.53003043 -.00000414  00000-0 -30195-3 0  9991",
    "TLE_LINE2": "2 48621  65.9989 250.6052 0011179 259.1364 100.8470 13.83368490 79582",
    "OBJECT_ID": "2021-043A",
    "OBJECT_NUMBER": "48621",
    "SEMIMAJOR_AXIS": "7330.100",
    "PERIOD": "104.094",
    "APOGEE": "960.160",
    "PERIGEE": "943.771",
    "DECAYED": "0"
  }
]